GORIZONT 1 [-]          
1 11158U 78118A   22290.18984470 -.00000084  00000+0  00000+0 0  9998
2 11158  11.0769 200.5982 3450659 287.8800  38.1135  1.00308109109512
GORIZONT 2 [-]          
1 11440U 79062A   22290.84557205  .00000012  00000+0  00000+0 0  9996
2 11440   9.0056 300.4294 0003749 270.6249 182.0812  1.00291775124604
GORIZONT 3 [-]          
1 11648U 79105A   22290.84801669 -.00000073  00000+0  00000+0 0  9998
2 11648   9.1666 301.8762 0014076 216.5907 243.5554  1.00347492109069
GORIZONT 4 [-]          
1 11841U 80049A   22290.39723059 -.00000216  00000+0  00000+0 0  9997
2 11841  10.3217 307.7072 0001020 251.1006 296.3832  0.98631178220319
GORIZONT 5 [-]          
1 13092U 82020A   22290.76286184 -.00000190  00000+0  00000+0 0  9993
2 13092  11.3191 313.0086 0034499 214.2207 134.2086  0.98533910108406
GORIZONT 6 [-]          
1 13624U 82103A   22290.80088122  .00000096  00000+0  00000+0 0  9997
2 13624  10.2425 313.0552 0002405 212.7224 340.5105  1.00300212107524
GORIZONT 7 [-]          
1 14160U 83066A   22291.08521652 -.00000049  00000+0  00000+0 0  9992
2 14160  11.9131 322.4384 0008947 313.7837  60.5113  0.98347126141637
GORIZONT 8 [-]          
1 14532U 83118A   22290.49696574 -.00000219  00000+0  00000+0 0  9992
2 14532  12.0905 324.3021 0030418 151.9503 241.5632  0.98271812107356
GORIZONT 9 [-]          
1 14940U 84041A   22290.81023932 -.00000113  00000+0  00000+0 0  9992
2 14940  11.2808 322.3256 0004992 211.4220 221.3099  1.00222416108529
GORIZONT 10 [-]         
1 15144U 84078A   22290.73024889  .00000103  00000+0  00000+0 0  9990
2 15144  11.3776 323.3532 0000984 168.1913 354.4406  1.00230943141186
GORIZONT 11 [-]         
1 15484U 85007A   22291.07078860 -.00000352  00000+0  00000+0 0  9993
2 15484  11.5605 325.3333 0004214 161.1422  31.7993  1.00373422139201
GORIZONT 12 [-]         
1 16769U 86044A   22290.78398771  .00000074  00000+0  00000+0 0  9995
2 16769  12.1871 330.7168 0002097 214.7658 178.3635  1.00211091133858
GORIZONT 13 [-]         
1 17083U 86090A   22290.26520920 -.00000114  00000+0  00000+0 0  9998
2 17083  14.0730 337.9090 0012493 339.2591 187.5992  0.96726541105690
GORIZONT 14 [-]         
1 17969U 87040A   22291.10427353 -.00000060  00000+0  00000+0 0  9997
2 17969  13.0041 329.2886 0032182 176.0962 193.2895  0.97658060106788
GORIZONT 15 [-]         
1 19017U 88028A   22290.85693428 -.00000034  00000+0  00000+0 0  9990
2 19017  14.3657 340.7207 0037348 158.7340 276.6023  0.97827548106410
GORIZONT 16 [-]         
1 19397U 88071A   22290.73591691  .00000087  00000+0  00000+0 0  9992
2 19397  13.2164 339.4051 0013453  67.4871 109.5767  0.99970748124850
GORIZONT 17 [-]         
1 19765U 89004A   22291.10636634 -.00000119  00000+0  00000+0 0  9994
2 19765  13.7674 342.7532 0023772 135.6357 231.4184  0.99064955122314
GORIZONT 18 [-]         
1 20107U 89052A   22290.83688771 -.00000081  00000+0  00000+0 0  9995
2 20107  13.8135 344.0133 0033141 318.8403  36.8759  0.99403554121102
GORIZONT 19 [-]         
1 20263U 89081A   22290.84821645 -.00000042  00000+0  00000+0 0  9997
2 20263  13.5428 343.1963 0004409 203.2965 211.7203  1.00353476 33923
GORIZONT 20 [-]         
1 20659U 90054A   22290.86628041 -.00000279  00000+0  00000+0 0  9997
2 20659  13.9832 346.0179 0007244 167.7864 279.6565  1.00253047118277
GORIZONT 21 [-]         
1 20923U 90094A   22291.10741274 -.00000285  00000+0  00000+0 0  9994
2 20923  13.9977 346.7863 0005520 197.8099 170.5181  1.00370423117020
GORIZONT 22 [-]         
1 20953U 90102A   22290.55797528 -.00000291  00000+0  00000+0 0  9995
2 20953  13.9574 347.1588 0002251  35.5834 344.5093  1.00261184116980
GORIZONT 23 [-]         
1 21533U 91046A   22290.85508897  .00000022  00000+0  00000+0 0  9991
2 21533  14.7252 351.3117 0002814 300.8989 120.1424  0.98905921 33452
GORIZONT 24 [-]         
1 21759U 91074A   22290.85115344  .00000008  00000+0  00000+0 0  9997
2 21759  14.8832 353.2199 0018121 223.6419 187.8955  0.98441563111785
GORIZONT 25 [-]         
1 21922U 92017A   22290.07410633 -.00000271  00000+0  00000+0 0  9993
2 21922  14.4251 352.5490 0028987  85.0835 272.8657  0.99849932111560
GORIZONT 26 [-]         
1 22041U 92043A   22290.77966542  .00000052  00000+0  00000+0 0  9993
2 22041  14.5986 354.5521 0031240 234.2365 120.0361  0.99242063110183
GORIZONT 27 [-]         
1 22245U 92082A   22290.77410508  .00000084  00000+0  00000+0 0  9993
2 22245  14.5147 354.1390 0010989  13.9618 350.3594  1.00146943113719
GORIZONT 28 [-]         
1 22880U 93069A   22290.83799271 -.00000267  00000+0  00000+0 0  9992
2 22880  14.6623 358.0033 0035167 134.5031 304.8735  0.99650998105792
GORIZONT 29 [-]         
1 22907U 93072A   22290.47202167 -.00000187  00000+0  00000+0 0  9990
2 22907  14.5733 357.4639 0008664 347.5152 191.2171  1.00162060105760
GORIZONT 30 [-]         
1 23108U 94030A   22290.56962422 -.00000259  00000+0  00000+0 0  9996
2 23108  14.5876 358.3668 0002707 167.1566 210.4402  1.00268094104079
GORIZONT 31 [-]         
1 23775U 96005A   22291.54225250 -.00000088  00000+0  00000+0 0  9990
2 23775  14.5107   4.5824 0018969 200.4071 190.7065  0.99901206 97688
GORIZONT 32 [-]         
1 23880U 96034A   22290.38759492  .00000094  00000+0  00000+0 0  9996
2 23880  14.4606   5.1061 0007797 359.1608 357.9764  1.00186966 96619
GORIZONT 33 [-]         
1 26372U 00029A   22291.04454128 -.00000200  00000+0  00000+0 0  9996
2 26372  13.1942  16.3107 0004139 107.9347 252.7922  1.00304853 81998
